id,createdAt,updatedAt,country,city,address,address2,postcode,regionCode,userId,valueDate,isActive,startedWorkOn,endWork,payPeriod,billRateValue,billRateCurrency,reWeeklyLimit,offerDate,acceptDate,rejectDate,employeeLevel,anonymousBonus,tenantId,orgId
27349427-337e-4f42-a2a1-42a43d31bcec,Fri Apr 10 2020 22:12:07 GMT+0300 (Eastern European Summer Time),Fri Apr 10 2020 22:12:07 GMT+0300 (Eastern European Summer Time),,,,,,,89ce36c9-48da-498f-8dd7-aee3cd48d619,,true,Tue Mar 20 2018 02:00:00 GMT+0200 (Eastern European Standard Time),,,,,,,,,D,,391d475f-2315-47ed-ad37-24fac31f43ba,22dfa284-5c96-40d8-9d72-411f9c987f71
69932271-f163-4bd8-b87a-d99a1ac10926,Fri Apr 10 2020 22:12:07 GMT+0300 (Eastern European Summer Time),Fri Apr 10 2020 22:12:07 GMT+0300 (Eastern European Summer Time),,,,,,,bba8f3a4-4449-4ecc-92ce-e44541f5985a,,true,Mon Mar 19 2018 02:00:00 GMT+0200 (Eastern European Standard Time),,,,,,,,,C,,59e7aa79-cea1-4fcc-8b6d-71ceed1e29a0,22dfa284-5c96-40d8-9d72-411f9c987f71
c5cbaf3b-4f39-4be5-896e-85215e593094,Fri Apr 10 2020 22:12:07 GMT+0300 (Eastern European Summer Time),Fri Apr 10 2020 22:12:07 GMT+0300 (Eastern European Summer Time),,,,,,,b29b88a1-4539-46ed-9412-a8e56ef28036,,true,Fri May 25 2018 03:00:00 GMT+0300 (Eastern European Summer Time),,,,,,,,,C,,9c019990-eb1c-4baf-8a97-971f81a5907c,22dfa284-5c96-40d8-9d72-411f9c987f71
c98eec4d-b652-409b-975d-529836369b9a,Fri Apr 10 2020 22:12:07 GMT+0300 (Eastern European Summer Time),Fri Apr 10 2020 22:12:07 GMT+0300 (Eastern European Summer Time),,,,,,,965bd567-dd54-458f-a279-186756439cc3,,true,Mon Jan 21 2019 02:00:00 GMT+0200 (Eastern European Standard Time),,,,,,,,,C,,7529f908-f486-4ada-9a2f-45a1d29da373,22dfa284-5c96-40d8-9d72-411f9c987f71
0619dadf-f684-4f2e-8d83-23649be8fde1,Fri Apr 10 2020 22:12:07 GMT+0300 (Eastern European Summer Time),Fri Apr 10 2020 22:12:07 GMT+0300 (Eastern European Summer Time),,,,,,,f82c1e4f-20b2-4abd-9354-11d1fb2c5587,,true,Mon Jan 21 2019 02:00:00 GMT+0200 (Eastern European Standard Time),,,,,,,,,C,,,22dfa284-5c96-40d8-9d72-411f9c987f71
d7a8b7fa-595d-4153-af16-56bf0fa77a80,Fri Apr 10 2020 22:12:07 GMT+0300 (Eastern European Summer Time),Fri Apr 10 2020 22:12:07 GMT+0300 (Eastern European Summer Time),,,,,,,ae755af3-8b99-4a03-b71b-6233b5e2e7ae,,true,Mon Jun 17 2019 03:00:00 GMT+0300 (Eastern European Summer Time),,,,,,,,,B,,,22dfa284-5c96-40d8-9d72-411f9c987f71
daf364f2-c7b7-42c0-b3e3-c0da024ab8dd,Fri Apr 10 2020 22:12:07 GMT+0300 (Eastern European Summer Time),Fri Apr 10 2020 22:12:07 GMT+0300 (Eastern European Summer Time),,,,,,,db191f71-fc98-4bfe-bfa8-4fcebf683a96,,true,Thu Aug 01 2019 03:00:00 GMT+0300 (Eastern European Summer Time),,,,,,,,,B,,,22dfa284-5c96-40d8-9d72-411f9c987f71
2fec1454-90e4-464d-b870-f769d022721c,Fri Apr 10 2020 22:12:07 GMT+0300 (Eastern European Summer Time),Fri Apr 10 2020 22:12:07 GMT+0300 (Eastern European Summer Time),,,,,,,c7c2783a-be51-44b9-ba7a-4e9aa6dfb724,,true,Wed Nov 27 2019 02:00:00 GMT+0200 (Eastern European Standard Time),,,,,,,,,,,,22dfa284-5c96-40d8-9d72-411f9c987f71
f082a7d0-c690-4018-a284-38cf9ab395ed,Fri Apr 10 2020 22:12:07 GMT+0300 (Eastern European Summer Time),Fri Apr 10 2020 22:12:07 GMT+0300 (Eastern European Summer Time),,,,,,,d8a11145-669f-4350-bb18-02adc5dd39da,,true,Sat Feb 01 2020 02:00:00 GMT+0200 (Eastern European Standard Time),,,,,,,,,A,,,22dfa284-5c96-40d8-9d72-411f9c987f71
c0fc76db-2873-40b0-a7b9-35e1304da044,Fri Apr 10 2020 22:12:07 GMT+0300 (Eastern European Summer Time),Fri Apr 10 2020 22:12:07 GMT+0300 (Eastern European Summer Time),,,,,,,3aec767e-17f9-4a4f-95dd-7bad314cedbf,,true,Tue Nov 26 2019 02:00:00 GMT+0200 (Eastern European Standard Time),,,,,,,,,,,,22dfa284-5c96-40d8-9d72-411f9c987f71
430739c8-d0d3-4dd2-ab71-74639c584796,Fri Apr 10 2020 22:12:07 GMT+0300 (Eastern European Summer Time),Fri Apr 10 2020 22:12:07 GMT+0300 (Eastern European Summer Time),,,,,,,3c748aee-9980-4a7f-895f-1f5d56ef750b,,true,Tue Feb 04 2020 02:00:00 GMT+0200 (Eastern European Standard Time),,,,,,,,,A,,,22dfa284-5c96-40d8-9d72-411f9c987f71
07daf0be-29c6-497d-a5ec-46b57d400e63,Fri Apr 10 2020 22:12:07 GMT+0300 (Eastern European Summer Time),Fri Apr 10 2020 22:12:07 GMT+0300 (Eastern European Summer Time),,,,,,,0037e02e-b1d4-448b-bc5e-6f91ba084432,,true,Thu Feb 06 2020 02:00:00 GMT+0200 (Eastern European Standard Time),,,,,,,,,A,,,22dfa284-5c96-40d8-9d72-411f9c987f71
e3740cbd-1115-44a0-a029-d390caf86647,Fri Apr 10 2020 22:12:07 GMT+0300 (Eastern European Summer Time),Fri Apr 10 2020 22:12:07 GMT+0300 (Eastern European Summer Time),,,,,,,44068215-8e3b-4719-80e6-2c88a1a9cecc,,true,Mon Mar 16 2020 02:00:00 GMT+0200 (Eastern European Standard Time),,,,,,,,,A,,,22dfa284-5c96-40d8-9d72-411f9c987f71
16a5bbe0-39a1-4cfa-a230-91e9eff35d74,Fri Apr 10 2020 22:12:07 GMT+0300 (Eastern European Summer Time),Fri Apr 10 2020 22:12:07 GMT+0300 (Eastern European Summer Time),,,,,,,22493965-3caf-4aa6-a02f-6d07c20bbdf9,,true,Wed Feb 05 2020 02:00:00 GMT+0200 (Eastern European Standard Time),,,,,,,,,A,,,22dfa284-5c96-40d8-9d72-411f9c987f71
31e01126-3dfd-4907-a9a9-565954e0fd92,Fri Apr 10 2020 22:12:07 GMT+0300 (Eastern European Summer Time),Fri Apr 10 2020 22:12:07 GMT+0300 (Eastern European Summer Time),,,,,,,cf464d92-7433-47de-97c1-2dd6c908696e,,true,Mon Mar 02 2020 02:00:00 GMT+0200 (Eastern European Standard Time),,,,,,,,,A,,,22dfa284-5c96-40d8-9d72-411f9c987f71
04c20d95-64f0-4fe1-9347-3431c82787e7,Fri Apr 10 2020 22:12:07 GMT+0300 (Eastern European Summer Time),Fri Apr 10 2020 22:12:07 GMT+0300 (Eastern European Summer Time),,,,,,,6161aef1-f5a9-4914-b79c-b9a57bd35b37,,true,Wed Aug 01 2018 03:00:00 GMT+0300 (Eastern European Summer Time),,,,,,,,,C,,,22dfa284-5c96-40d8-9d72-411f9c987f71
caaab5ff-cf85-4749-afc6-9039be9f473b,Fri Apr 10 2020 22:12:07 GMT+0300 (Eastern European Summer Time),Fri Apr 10 2020 22:12:07 GMT+0300 (Eastern European Summer Time),,,,,,,d3dc6707-4f21-4c5c-95c0-f358151c66b6,,true,Wed Nov 27 2019 02:00:00 GMT+0200 (Eastern European Standard Time),,,,,,,,,,,,22dfa284-5c96-40d8-9d72-411f9c987f71
5a4edfa4-6fc6-41b5-877a-15a72d036d69,Fri Apr 10 2020 22:12:07 GMT+0300 (Eastern European Summer Time),Fri Apr 10 2020 22:12:07 GMT+0300 (Eastern European Summer Time),,,,,,,3436c36b-38dc-49b4-8072-8817b3e65977,,true,Sat Mar 07 2020 02:00:00 GMT+0200 (Eastern European Standard Time),,,,,,,,,,,,22dfa284-5c96-40d8-9d72-411f9c987f71
64c314d4-7637-4cb6-a63b-d23cc55d00f5,Fri Apr 10 2020 22:12:07 GMT+0300 (Eastern European Summer Time),Fri Apr 10 2020 22:12:07 GMT+0300 (Eastern European Summer Time),,,,,,,e3b886dc-80d2-4773-82c7-f6274d10dce4,,true,Sat Mar 07 2020 02:00:00 GMT+0200 (Eastern European Standard Time),,,,,,,,,,,,22dfa284-5c96-40d8-9d72-411f9c987f71
158d633f-909a-4a5c-8406-b836f42046bd,Fri Apr 10 2020 22:12:07 GMT+0300 (Eastern European Summer Time),Fri Apr 10 2020 22:12:07 GMT+0300 (Eastern European Summer Time),,,,,,,c44d7958-a63c-4186-a445-c21f3e25a3a2,,true,Wed Aug 01 2018 03:00:00 GMT+0300 (Eastern European Summer Time),,,,,,,,,C,,,22dfa284-5c96-40d8-9d72-411f9c987f71
1d4fda88-9cc2-49b2-9479-4d5f72fec1c1,Fri Apr 10 2020 22:12:07 GMT+0300 (Eastern European Summer Time),Fri Apr 10 2020 22:12:07 GMT+0300 (Eastern European Summer Time),,,,,,,a24f2713-d82c-46e6-8448-e45d237970b6,,true,Mon Jul 15 2019 03:00:00 GMT+0300 (Eastern European Summer Time),Tue Oct 15 2019 03:00:00 GMT+0300 (Eastern European Summer Time),,,,,,,,A,,,22dfa284-5c96-40d8-9d72-411f9c987f71
b45561aa-7b3d-4ee7-8c61-ff4f70094321,Fri Apr 10 2020 22:12:08 GMT+0300 (Eastern European Summer Time),Fri Apr 10 2020 22:12:08 GMT+0300 (Eastern European Summer Time),,,,,,,dfde9ba2-483f-4ff9-8549-9fdb8e0fd970,,true,,,,,,,,,,,,,ec991350-a9cb-4628-8753-430b648c01c5
81d65bc8-0155-4631-9427-453414cfbc5a,Fri Apr 10 2020 22:12:08 GMT+0300 (Eastern European Summer Time),Fri Apr 10 2020 22:12:08 GMT+0300 (Eastern European Summer Time),,,,,,,756b9183-fe7d-4cb4-87b6-c4420cf6eb44,,true,,,,,,,,,,,,,ec991350-a9cb-4628-8753-430b648c01c5
e4ff3179-b8ec-4664-a123-e5025ce64931,Fri Apr 10 2020 22:12:08 GMT+0300 (Eastern European Summer Time),Fri Apr 10 2020 22:12:08 GMT+0300 (Eastern European Summer Time),,,,,,,b1408b7b-b67c-4782-9765-1226f5a1fb25,,true,,,,,,,,,,,,,ec991350-a9cb-4628-8753-430b648c01c5
58dada1b-4498-46c6-aaa2-04259bd36fb4,Fri Apr 10 2020 22:12:08 GMT+0300 (Eastern European Summer Time),Fri Apr 10 2020 22:12:08 GMT+0300 (Eastern European Summer Time),,,,,,,7ff0b415-3ab6-4a73-9ecc-fb0ba224cd41,,true,,,,,,,,,,,,,ec991350-a9cb-4628-8753-430b648c01c5
f9b7c3f7-1b49-4e7b-9194-c66a33f1693a,Fri Apr 10 2020 22:12:08 GMT+0300 (Eastern European Summer Time),Fri Apr 10 2020 22:12:08 GMT+0300 (Eastern European Summer Time),,,,,,,cb43bfda-f02e-4051-85f5-66f29763c831,,true,,,,,,,,,,,,,ec991350-a9cb-4628-8753-430b648c01c5
3dcd92b2-1bed-44a8-b467-3804d0059a8c,Fri Apr 10 2020 22:12:08 GMT+0300 (Eastern European Summer Time),Fri Apr 10 2020 22:12:08 GMT+0300 (Eastern European Summer Time),,,,,,,1b5eaf02-a31d-4f5c-a0ae-12cec388f746,,true,,,,,,,,,,,,,ec991350-a9cb-4628-8753-430b648c01c5
4ae63c72-3ae2-44b0-a78e-cc61a9866b79,Fri Apr 10 2020 22:12:08 GMT+0300 (Eastern European Summer Time),Fri Apr 10 2020 22:12:08 GMT+0300 (Eastern European Summer Time),,,,,,,e75b0e4f-8877-4508-9050-0d38dc0d0ccd,,true,,,,,,,,,,,,,ec991350-a9cb-4628-8753-430b648c01c5
3d34d1a8-ac36-4de2-90db-d3b99b124910,Fri Apr 10 2020 22:12:09 GMT+0300 (Eastern European Summer Time),Fri Apr 10 2020 22:12:09 GMT+0300 (Eastern European Summer Time),,,,,,,98bfbbc7-2cba-4fa4-90fc-29b25ed32926,,true,,,,,,,,,,,,,ec991350-a9cb-4628-8753-430b648c01c5
baba40eb-066f-4b6b-8738-8f9e0dc8a447,Fri Apr 10 2020 22:12:09 GMT+0300 (Eastern European Summer Time),Fri Apr 10 2020 22:12:09 GMT+0300 (Eastern European Summer Time),,,,,,,75fdda07-5351-4a6f-bfc4-de7d33d409e1,,true,,,,,,,,,,,,,ec991350-a9cb-4628-8753-430b648c01c5
b4939809-b2a9-4a27-8aae-97aa68a3d628,Fri Apr 10 2020 22:12:09 GMT+0300 (Eastern European Summer Time),Fri Apr 10 2020 22:12:09 GMT+0300 (Eastern European Summer Time),,,,,,,32f6aef1-700b-4f84-9b12-db97f875a385,,true,,,,,,,,,,,,,ec991350-a9cb-4628-8753-430b648c01c5
d955ef27-5948-4c58-8f31-27f3c871ba7c,Fri Apr 10 2020 22:12:09 GMT+0300 (Eastern European Summer Time),Fri Apr 10 2020 22:12:09 GMT+0300 (Eastern European Summer Time),,,,,,,40b62192-35d7-4a19-bd44-76a5c084ab2b,,true,,,,,,,,,,,,,997e4e12-d773-4677-8785-9fe2d6c903a2
e41c3ed9-ecc3-4580-8f05-e6dc4b8ccc01,Fri Apr 10 2020 22:12:09 GMT+0300 (Eastern European Summer Time),Fri Apr 10 2020 22:12:09 GMT+0300 (Eastern European Summer Time),,,,,,,55396acd-569d-47f3-9fd0-59ee38e0d703,,true,,,,,,,,,,,,,997e4e12-d773-4677-8785-9fe2d6c903a2
ae650023-f316-4b0f-b7f8-830c13b9f688,Fri Apr 10 2020 22:12:09 GMT+0300 (Eastern European Summer Time),Fri Apr 10 2020 22:12:09 GMT+0300 (Eastern European Summer Time),,,,,,,17afde0a-f0ca-4ed1-aa4f-e494e88e426e,,true,,,,,,,,,,,,,997e4e12-d773-4677-8785-9fe2d6c903a2
ee1e38c5-cc54-4d4c-82b2-63cec60e294c,Fri Apr 10 2020 22:12:09 GMT+0300 (Eastern European Summer Time),Fri Apr 10 2020 22:12:09 GMT+0300 (Eastern European Summer Time),,,,,,,7b769ffd-4931-44db-88aa-3369bcee667b,,true,,,,,,,,,,,,,997e4e12-d773-4677-8785-9fe2d6c903a2
1a8a8deb-9f29-4b20-bc57-dc810621713c,Fri Apr 10 2020 22:12:09 GMT+0300 (Eastern European Summer Time),Fri Apr 10 2020 22:12:09 GMT+0300 (Eastern European Summer Time),,,,,,,76d0954a-ba4e-4726-94b8-2622fd2e6617,,true,,,,,,,,,,,,,997e4e12-d773-4677-8785-9fe2d6c903a2
f50e358d-55a7-4fb8-91d0-e1bf9a13c4a9,Fri Apr 10 2020 22:12:09 GMT+0300 (Eastern European Summer Time),Fri Apr 10 2020 22:12:09 GMT+0300 (Eastern European Summer Time),,,,,,,e49d9333-5d91-41c7-b7dc-af49379e2e78,,true,,,,,,,,,,,,,997e4e12-d773-4677-8785-9fe2d6c903a2
668ad263-cea3-4842-ad81-bca291414e55,Fri Apr 10 2020 22:12:09 GMT+0300 (Eastern European Summer Time),Fri Apr 10 2020 22:12:09 GMT+0300 (Eastern European Summer Time),,,,,,,f53d78be-d2e4-4a09-abaf-b10cc46f7618,,true,,,,,,,,,,,,,997e4e12-d773-4677-8785-9fe2d6c903a2
58b3dd64-2601-4105-bd3f-87593ab73b44,Fri Apr 10 2020 22:12:09 GMT+0300 (Eastern European Summer Time),Fri Apr 10 2020 22:12:09 GMT+0300 (Eastern European Summer Time),,,,,,,24e49426-136b-4337-97a3-9bd541fcf35a,,true,,,,,,,,,,,,,997e4e12-d773-4677-8785-9fe2d6c903a2
db6d61a5-2b2f-4241-8ab6-f3ef1ecf70a6,Fri Apr 10 2020 22:12:09 GMT+0300 (Eastern European Summer Time),Fri Apr 10 2020 22:12:09 GMT+0300 (Eastern European Summer Time),,,,,,,efb00c2a-d76e-4b91-8f85-567092e86d24,,true,,,,,,,,,,,,,997e4e12-d773-4677-8785-9fe2d6c903a2
c4e164e2-f7bc-4d16-ba01-e705c5a75e71,Fri Apr 10 2020 22:12:09 GMT+0300 (Eastern European Summer Time),Fri Apr 10 2020 22:12:09 GMT+0300 (Eastern European Summer Time),,,,,,,afb96a26-1656-459d-9050-8b1e9f0255d1,,true,,,,,,,,,,,,,997e4e12-d773-4677-8785-9fe2d6c903a2
ac08c907-10dd-4baf-8cbb-706b098976aa,Fri Apr 10 2020 22:12:09 GMT+0300 (Eastern European Summer Time),Fri Apr 10 2020 22:12:09 GMT+0300 (Eastern European Summer Time),,,,,,,9d51c06f-549d-4de8-aec2-3598c006afdd,,true,,,,,,,,,,,,,df772744-8816-4289-b577-474b094c8250
bab4620e-7680-4100-a23f-8ada26fbdb07,Fri Apr 10 2020 22:12:09 GMT+0300 (Eastern European Summer Time),Fri Apr 10 2020 22:12:09 GMT+0300 (Eastern European Summer Time),,,,,,,0a7b1fe9-d61d-4a00-a723-693a66cb5b01,,true,,,,,,,,,,,,,df772744-8816-4289-b577-474b094c8250
f7d46bd9-70a1-4a35-b849-6e74af76b03f,Fri Apr 10 2020 22:12:09 GMT+0300 (Eastern European Summer Time),Fri Apr 10 2020 22:12:09 GMT+0300 (Eastern European Summer Time),,,,,,,630b2d6e-b736-4eec-92e3-0e16aae461ef,,true,,,,,,,,,,,,,df772744-8816-4289-b577-474b094c8250
cb3b6949-2037-4801-8bf6-c24f1f69cc97,Fri Apr 10 2020 22:12:09 GMT+0300 (Eastern European Summer Time),Fri Apr 10 2020 22:12:09 GMT+0300 (Eastern European Summer Time),,,,,,,56cf8ce0-8e06-40a6-8b35-d339bfe17522,,true,,,,,,,,,,,,,df772744-8816-4289-b577-474b094c8250
06162c9b-f7b4-46b3-8c64-2bd6ce9cdec5,Fri Apr 10 2020 22:12:09 GMT+0300 (Eastern European Summer Time),Fri Apr 10 2020 22:12:09 GMT+0300 (Eastern European Summer Time),,,,,,,b1b30244-7811-443c-b371-21ab8e6a4592,,true,,,,,,,,,,,,,df772744-8816-4289-b577-474b094c8250
2e83f2ad-cf0d-4b60-b089-080bcc17c02d,Fri Apr 10 2020 22:12:09 GMT+0300 (Eastern European Summer Time),Fri Apr 10 2020 22:12:09 GMT+0300 (Eastern European Summer Time),,,,,,,3bbdc35d-37cc-4970-9c3b-52280096d047,,true,,,,,,,,,,,,,df772744-8816-4289-b577-474b094c8250
be2e5c58-2672-44c6-aee2-70ff325b424e,Fri Apr 10 2020 22:12:09 GMT+0300 (Eastern European Summer Time),Fri Apr 10 2020 22:12:09 GMT+0300 (Eastern European Summer Time),,,,,,,26860870-2fe1-488e-940c-9c47edfb8bc6,,true,,,,,,,,,,,,,df772744-8816-4289-b577-474b094c8250
a9d009d7-eb6b-4588-ba60-f9ac5ef1ade8,Fri Apr 10 2020 22:12:09 GMT+0300 (Eastern European Summer Time),Fri Apr 10 2020 22:12:09 GMT+0300 (Eastern European Summer Time),,,,,,,20cf2792-dac1-4c04-8976-96349721196e,,true,,,,,,,,,,,,,df772744-8816-4289-b577-474b094c8250
e702fb0b-4b0f-4970-8b25-baab00c23916,Fri Apr 10 2020 22:12:09 GMT+0300 (Eastern European Summer Time),Fri Apr 10 2020 22:12:09 GMT+0300 (Eastern European Summer Time),,,,,,,a4ccacb4-f929-4fdb-8a64-ee5eabcb0055,,true,,,,,,,,,,,,,df772744-8816-4289-b577-474b094c8250
36a2ead7-7a4c-474b-b819-a30030a8bdc0,Fri Apr 10 2020 22:12:09 GMT+0300 (Eastern European Summer Time),Fri Apr 10 2020 22:12:09 GMT+0300 (Eastern European Summer Time),,,,,,,641545d6-76db-4cf2-8871-9133313af4da,,true,,,,,,,,,,,,,df772744-8816-4289-b577-474b094c8250
9a6691e9-a6c8-4ade-af3d-7813fe3744b6,Fri Apr 10 2020 22:12:09 GMT+0300 (Eastern European Summer Time),Fri Apr 10 2020 22:12:09 GMT+0300 (Eastern European Summer Time),,,,,,,38199d51-aa2b-442c-8e99-2b9d689cf4b4,,true,,,,,,,,,,,,,fda86502-8c57-48a6-bfd6-d5f9fe7f90eb
b696b553-2813-4704-a460-b7edfa4b75f7,Fri Apr 10 2020 22:12:09 GMT+0300 (Eastern European Summer Time),Fri Apr 10 2020 22:12:09 GMT+0300 (Eastern European Summer Time),,,,,,,b107d8d8-d03d-4826-8ba2-b60e5624a3b3,,true,,,,,,,,,,,,,fda86502-8c57-48a6-bfd6-d5f9fe7f90eb
0f08d037-7056-49e8-aa17-5cf5c2ab8b8f,Fri Apr 10 2020 22:12:09 GMT+0300 (Eastern European Summer Time),Fri Apr 10 2020 22:12:09 GMT+0300 (Eastern European Summer Time),,,,,,,9788154e-d592-4844-96d0-9357bbc7992c,,true,,,,,,,,,,,,,fda86502-8c57-48a6-bfd6-d5f9fe7f90eb
61f504ee-a479-40e5-940c-b99fe7977b7a,Fri Apr 10 2020 22:12:09 GMT+0300 (Eastern European Summer Time),Fri Apr 10 2020 22:12:09 GMT+0300 (Eastern European Summer Time),,,,,,,112fb98b-ac00-435e-9e43-c22944f1f912,,true,,,,,,,,,,,,,fda86502-8c57-48a6-bfd6-d5f9fe7f90eb
a787e2d6-be8a-4f41-81dc-1a1cdf14184e,Fri Apr 10 2020 22:12:09 GMT+0300 (Eastern European Summer Time),Fri Apr 10 2020 22:12:09 GMT+0300 (Eastern European Summer Time),,,,,,,3c175127-5de7-40bf-be8a-8a006fd47815,,true,,,,,,,,,,,,,fda86502-8c57-48a6-bfd6-d5f9fe7f90eb
20f9703a-8b6c-482e-afdd-9d231eefa928,Fri Apr 10 2020 22:12:09 GMT+0300 (Eastern European Summer Time),Fri Apr 10 2020 22:12:09 GMT+0300 (Eastern European Summer Time),,,,,,,8a17cbea-cff8-42d4-b626-b1170102b6c3,,true,,,,,,,,,,,,,fda86502-8c57-48a6-bfd6-d5f9fe7f90eb
a83a4903-720f-4481-9d48-a818f51a665f,Fri Apr 10 2020 22:12:09 GMT+0300 (Eastern European Summer Time),Fri Apr 10 2020 22:12:09 GMT+0300 (Eastern European Summer Time),,,,,,,c4819e2d-5921-4fac-bb97-6e1bd4aa4732,,true,,,,,,,,,,,,,fda86502-8c57-48a6-bfd6-d5f9fe7f90eb
6ae0b0dc-a82b-4a22-bcf3-4f107cc47948,Fri Apr 10 2020 22:12:10 GMT+0300 (Eastern European Summer Time),Fri Apr 10 2020 22:12:10 GMT+0300 (Eastern European Summer Time),,,,,,,167d1b9c-1318-4428-bc94-6f39dddbbe63,,true,,,,,,,,,,,,,fda86502-8c57-48a6-bfd6-d5f9fe7f90eb
aebb3281-58b3-421b-9f9a-579686a40b4a,Fri Apr 10 2020 22:12:10 GMT+0300 (Eastern European Summer Time),Fri Apr 10 2020 22:12:10 GMT+0300 (Eastern European Summer Time),,,,,,,6398f59a-a374-44ad-a4c8-59e5b75f80e2,,true,,,,,,,,,,,,,fda86502-8c57-48a6-bfd6-d5f9fe7f90eb
8c73dc25-2ad0-4c6d-b6cf-c9779678911e,Fri Apr 10 2020 22:12:10 GMT+0300 (Eastern European Summer Time),Fri Apr 10 2020 22:12:10 GMT+0300 (Eastern European Summer Time),,,,,,,99329f2f-ae21-4169-88dc-cfaa2db04bdf,,true,,,,,,,,,,,,,fda86502-8c57-48a6-bfd6-d5f9fe7f90eb
9f2c817e-eed0-4d1e-a79b-4172c7b27802,Fri Apr 10 2020 22:12:10 GMT+0300 (Eastern European Summer Time),Fri Apr 10 2020 22:12:10 GMT+0300 (Eastern European Summer Time),,,,,,,2823da61-d7af-4277-8506-cdc39316c390,,true,,,,,,,,,,,,,0e5af224-825d-43cb-9515-67a5a0677967
2a8faa75-bb85-4817-b1fc-3f3ccbc32f38,Fri Apr 10 2020 22:12:10 GMT+0300 (Eastern European Summer Time),Fri Apr 10 2020 22:12:10 GMT+0300 (Eastern European Summer Time),,,,,,,36174216-35de-40c1-8c54-917d0b88a058,,true,,,,,,,,,,,,,0e5af224-825d-43cb-9515-67a5a0677967
6ab25ca3-5977-4c91-84fc-68aafbd6f6b7,Fri Apr 10 2020 22:12:10 GMT+0300 (Eastern European Summer Time),Fri Apr 10 2020 22:12:10 GMT+0300 (Eastern European Summer Time),,,,,,,8e6ea278-24c4-418c-8a7c-ae7c6dbbe087,,true,,,,,,,,,,,,,0e5af224-825d-43cb-9515-67a5a0677967
c776beeb-b8ca-4803-9a4e-88017fcd0748,Fri Apr 10 2020 22:12:10 GMT+0300 (Eastern European Summer Time),Fri Apr 10 2020 22:12:10 GMT+0300 (Eastern European Summer Time),,,,,,,6d807fc6-8b94-445e-8ece-211a6a28b6a0,,true,,,,,,,,,,,,,0e5af224-825d-43cb-9515-67a5a0677967
bd47a2f9-c757-45d9-a1be-21cc85ea3c7a,Fri Apr 10 2020 22:12:10 GMT+0300 (Eastern European Summer Time),Fri Apr 10 2020 22:12:10 GMT+0300 (Eastern European Summer Time),,,,,,,f0f9ca06-f924-4f01-85c2-9320f4e4cd39,,true,,,,,,,,,,,,,0e5af224-825d-43cb-9515-67a5a0677967
d3518fae-cf6b-4e0c-abf2-a86fdb7660ea,Fri Apr 10 2020 22:12:10 GMT+0300 (Eastern European Summer Time),Fri Apr 10 2020 22:12:10 GMT+0300 (Eastern European Summer Time),,,,,,,bbd04d5d-45b9-4943-b99c-249b15f70272,,true,,,,,,,,,,,,,0e5af224-825d-43cb-9515-67a5a0677967
6cd4b965-d85e-4cc4-9019-ddc8d84b398a,Fri Apr 10 2020 22:12:10 GMT+0300 (Eastern European Summer Time),Fri Apr 10 2020 22:12:10 GMT+0300 (Eastern European Summer Time),,,,,,,8e8399da-bc9f-4f21-a60b-f37bda015a64,,true,,,,,,,,,,,,,0e5af224-825d-43cb-9515-67a5a0677967
94523c8c-7a14-4e6d-ad64-72db0eb0c4f7,Fri Apr 10 2020 22:12:10 GMT+0300 (Eastern European Summer Time),Fri Apr 10 2020 22:12:10 GMT+0300 (Eastern European Summer Time),,,,,,,5f1f4a10-7e9e-419b-a4cd-a7168c15d5e4,,true,,,,,,,,,,,,,0e5af224-825d-43cb-9515-67a5a0677967
abffd889-9b7c-40da-a511-a54e452c2896,Fri Apr 10 2020 22:12:10 GMT+0300 (Eastern European Summer Time),Fri Apr 10 2020 22:12:10 GMT+0300 (Eastern European Summer Time),,,,,,,4edb1ed4-5be2-401b-b3d5-ee54f6d53eed,,true,,,,,,,,,,,,,0e5af224-825d-43cb-9515-67a5a0677967
a00468bf-9755-4b15-9845-8f7946f474ce,Fri Apr 10 2020 22:12:10 GMT+0300 (Eastern European Summer Time),Fri Apr 10 2020 22:12:10 GMT+0300 (Eastern European Summer Time),,,,,,,3e63e0ca-eb48-4a40-961d-d3dfc8266b7d,,true,,,,,,,,,,,,,0e5af224-825d-43cb-9515-67a5a0677967
